CCSDS_OMM_VERS = 2.0
CREATION_DATE  = 
ORIGINATOR     = 

OBJECT_NAME    = ERS-1
OBJECT_ID      = 1991-050A
CENTER_NAME    = EARTH
REF_FRAME      = TEME
TIME_SYSTEM    = UTC
MEAN_ELEMENT_THEORY = SGP/SGP4

EPOCH          = 2026-03-29T00:30:40.802976
MEAN_MOTION    = 14.39463664
ECCENTRICITY   = .0032696
INCLINATION    = 98.7865
RA_OF_ASC_NODE = 106.7409
ARG_OF_PERICENTER = 143.4329
MEAN_ANOMALY   = 216.9099

EPHEMERIS_TYPE = 0
CLASSIFICATION_TYPE = U
NORAD_CAT_ID   = 21574
ELEMENT_SET_NO = 999
REV_AT_EPOCH   = 81851
BSTAR          = .12161E-3
MEAN_MOTION_DOT = .335E-5
MEAN_MOTION_DDOT = 0

CCSDS_OMM_VERS = 2.0
CREATION_DATE  = 
ORIGINATOR     = 

OBJECT_NAME    = ARIANE 40 R/B
OBJECT_ID      = 1991-050F
CENTER_NAME    = EARTH
REF_FRAME      = TEME
TIME_SYSTEM    = UTC
MEAN_ELEMENT_THEORY = SGP/SGP4

EPOCH          = 2026-03-29T03:57:32.264064
MEAN_MOTION    = 14.42907726
ECCENTRICITY   = .0003519
INCLINATION    = 98.1971
RA_OF_ASC_NODE = 139.6668
ARG_OF_PERICENTER = 36.7160
MEAN_ANOMALY   = 323.4271

EPHEMERIS_TYPE = 0
CLASSIFICATION_TYPE = U
NORAD_CAT_ID   = 21610
ELEMENT_SET_NO = 999
REV_AT_EPOCH   = 82180
BSTAR          = .12156E-3
MEAN_MOTION_DOT = .365E-5
MEAN_MOTION_DDOT = 0

CCSDS_OMM_VERS = 2.0
CREATION_DATE  = 
ORIGINATOR     = 

OBJECT_NAME    = INTERCOSMOS 25
OBJECT_ID      = 1991-086A
CENTER_NAME    = EARTH
REF_FRAME      = TEME
TIME_SYSTEM    = UTC
MEAN_ELEMENT_THEORY = SGP/SGP4

EPOCH          = 2026-03-29T01:20:59.478144
MEAN_MOTION    = 12.12063902
ECCENTRICITY   = .1486507
INCLINATION    = 82.6012
RA_OF_ASC_NODE = 298.3001
ARG_OF_PERICENTER = 75.2059
MEAN_ANOMALY   = 300.8528

EPHEMERIS_TYPE = 0
CLASSIFICATION_TYPE = U
NORAD_CAT_ID   = 21819
ELEMENT_SET_NO = 999
REV_AT_EPOCH   = 49903
BSTAR          = .35245E-3
MEAN_MOTION_DOT = .1832E-4
MEAN_MOTION_DDOT = 0

CCSDS_OMM_VERS = 2.0
CREATION_DATE  = 
ORIGINATOR     = 

OBJECT_NAME    = SL-8 R/B
OBJECT_ID      = 1992-008B
CENTER_NAME    = EARTH
REF_FRAME      = TEME
TIME_SYSTEM    = UTC
MEAN_ELEMENT_THEORY = SGP/SGP4

EPOCH          = 2026-03-29T05:34:32.054016
MEAN_MOTION    = 13.75969530
ECCENTRICITY   = .0035871
INCLINATION    = 82.9231
RA_OF_ASC_NODE = 253.2367
ARG_OF_PERICENTER = 80.6122
MEAN_ANOMALY   = 91.1394

EPHEMERIS_TYPE = 0
CLASSIFICATION_TYPE = U
NORAD_CAT_ID   = 21876
ELEMENT_SET_NO = 999
REV_AT_EPOCH   = 71210
BSTAR          = -.70405E-5
MEAN_MOTION_DOT = .9E-7
MEAN_MOTION_DDOT = 0

CCSDS_OMM_VERS = 2.0
CREATION_DATE  = 
ORIGINATOR     = 

OBJECT_NAME    = SL-8 R/B
OBJECT_ID      = 1992-020B
CENTER_NAME    = EARTH
REF_FRAME      = TEME
TIME_SYSTEM    = UTC
MEAN_ELEMENT_THEORY = SGP/SGP4

EPOCH          = 2026-03-29T04:26:17.964960
MEAN_MOTION    = 13.75550514
ECCENTRICITY   = .0027781
INCLINATION    = 82.9302
RA_OF_ASC_NODE = 139.2867
ARG_OF_PERICENTER = 241.8038
MEAN_ANOMALY   = 172.4048

EPHEMERIS_TYPE = 0
CLASSIFICATION_TYPE = U
NORAD_CAT_ID   = 21938
ELEMENT_SET_NO = 999
REV_AT_EPOCH   = 70381
BSTAR          = .19337E-4
MEAN_MOTION_DOT = .34E-6
MEAN_MOTION_DDOT = 0

CCSDS_OMM_VERS = 2.0
CREATION_DATE  = 
ORIGINATOR     = 

OBJECT_NAME    = USA 81
OBJECT_ID      = 1992-023A
CENTER_NAME    = EARTH
REF_FRAME      = TEME
TIME_SYSTEM    = UTC
MEAN_ELEMENT_THEORY = SGP/SGP4

EPOCH          = 2026-03-29T03:34:39.394848
MEAN_MOTION    = 14.32374104
ECCENTRICITY   = .0001766
INCLINATION    = 85.0047
RA_OF_ASC_NODE = 120.2111
ARG_OF_PERICENTER = 68.0863
MEAN_ANOMALY   = 292.0517

EPHEMERIS_TYPE = 0
CLASSIFICATION_TYPE = U
NORAD_CAT_ID   = 21949
ELEMENT_SET_NO = 999
REV_AT_EPOCH   = 9757
BSTAR          = .60974E-4
MEAN_MOTION_DOT = .185E-5
MEAN_MOTION_DDOT = 0

CCSDS_OMM_VERS = 2.0
CREATION_DATE  = 
ORIGINATOR     = 

OBJECT_NAME    = COSMOS 2219
OBJECT_ID      = 1992-076A
CENTER_NAME    = EARTH
REF_FRAME      = TEME
TIME_SYSTEM    = UTC
MEAN_ELEMENT_THEORY = SGP/SGP4

EPOCH          = 2026-03-29T02:46:13.361952
MEAN_MOTION    = 14.14090705
ECCENTRICITY   = .0017901
INCLINATION    = 71.0622
RA_OF_ASC_NODE = 337.4638
ARG_OF_PERICENTER = 178.4934
MEAN_ANOMALY   = 181.6246

EPHEMERIS_TYPE = 0
CLASSIFICATION_TYPE = U
NORAD_CAT_ID   = 22219
ELEMENT_SET_NO = 999
REV_AT_EPOCH   = 72112
BSTAR          = -.99464E-4
MEAN_MOTION_DOT = -.237E-5
MEAN_MOTION_DDOT = 0

CCSDS_OMM_VERS = 2.0
CREATION_DATE  = 
ORIGINATOR     = 

OBJECT_NAME    = SL-16 R/B
OBJECT_ID      = 1992-076B
CENTER_NAME    = EARTH
REF_FRAME      = TEME
TIME_SYSTEM    = UTC
MEAN_ELEMENT_THEORY = SGP/SGP4

EPOCH          = 2026-03-29T04:22:46.081920
MEAN_MOTION    = 14.16863910
ECCENTRICITY   = .0010707
INCLINATION    = 70.9997
RA_OF_ASC_NODE = 147.3158
ARG_OF_PERICENTER = 59.9120
MEAN_ANOMALY   = 3.2767

EPHEMERIS_TYPE = 0
CLASSIFICATION_TYPE = U
NORAD_CAT_ID   = 22220
ELEMENT_SET_NO = 999
REV_AT_EPOCH   = 72459
BSTAR          = -.42482E-4
MEAN_MOTION_DOT = -.133E-5
MEAN_MOTION_DDOT = 0

CCSDS_OMM_VERS = 2.0
CREATION_DATE  = 
ORIGINATOR     = 

OBJECT_NAME    = COSMOS 2221
OBJECT_ID      = 1992-080A
CENTER_NAME    = EARTH
REF_FRAME      = TEME
TIME_SYSTEM    = UTC
MEAN_ELEMENT_THEORY = SGP/SGP4

EPOCH          = 2026-03-28T13:31:10.365024
MEAN_MOTION    = 14.96277668
ECCENTRICITY   = .0015475
INCLINATION    = 82.5006
RA_OF_ASC_NODE = 260.9964
ARG_OF_PERICENTER = 126.2240
MEAN_ANOMALY   = 234.0415

EPHEMERIS_TYPE = 0
CLASSIFICATION_TYPE = U
NORAD_CAT_ID   = 22236
ELEMENT_SET_NO = 999
REV_AT_EPOCH   = 78361
BSTAR          = .2299E-3
MEAN_MOTION_DOT = .2628E-4
MEAN_MOTION_DDOT = 0

CCSDS_OMM_VERS = 2.0
CREATION_DATE  = 
ORIGINATOR     = 

OBJECT_NAME    = SL-16 R/B
OBJECT_ID      = 1992-093B
CENTER_NAME    = EARTH
REF_FRAME      = TEME
TIME_SYSTEM    = UTC
MEAN_ELEMENT_THEORY = SGP/SGP4

EPOCH          = 2026-03-29T02:28:28.120800
MEAN_MOTION    = 14.15454721
ECCENTRICITY   = .0006506
INCLINATION    = 71.0230
RA_OF_ASC_NODE = 323.5146
ARG_OF_PERICENTER = 274.8622
MEAN_ANOMALY   = 85.1758

EPHEMERIS_TYPE = 0
CLASSIFICATION_TYPE = U
NORAD_CAT_ID   = 22285
ELEMENT_SET_NO = 999
REV_AT_EPOCH   = 71590
BSTAR          = .11828E-3
MEAN_MOTION_DOT = .183E-5
MEAN_MOTION_DDOT = 0

CCSDS_OMM_VERS = 2.0
CREATION_DATE  = 
ORIGINATOR     = 

OBJECT_NAME    = COSMOS 2228
OBJECT_ID      = 1992-094A
CENTER_NAME    = EARTH
REF_FRAME      = TEME
TIME_SYSTEM    = UTC
MEAN_ELEMENT_THEORY = SGP/SGP4

EPOCH          = 2026-03-29T04:02:40.570368
MEAN_MOTION    = 14.97290607
ECCENTRICITY   = .0016848
INCLINATION    = 82.5185
RA_OF_ASC_NODE = 218.6597
ARG_OF_PERICENTER = 233.6370
MEAN_ANOMALY   = 126.3298

EPHEMERIS_TYPE = 0
CLASSIFICATION_TYPE = U
NORAD_CAT_ID   = 22286
ELEMENT_SET_NO = 999
REV_AT_EPOCH   = 77897
BSTAR          = .31871E-3
MEAN_MOTION_DOT = .3729E-4
MEAN_MOTION_DDOT = 0

CCSDS_OMM_VERS = 2.0
CREATION_DATE  = 
ORIGINATOR     = 

OBJECT_NAME    = SL-16 R/B
OBJECT_ID      = 1993-016B
CENTER_NAME    = EARTH
REF_FRAME      = TEME
TIME_SYSTEM    = UTC
MEAN_ELEMENT_THEORY = SGP/SGP4

EPOCH          = 2026-03-29T05:11:14.056224
MEAN_MOTION    = 14.15305570
ECCENTRICITY   = .0012342
INCLINATION    = 71.0077
RA_OF_ASC_NODE = 174.1730
ARG_OF_PERICENTER = 288.9182
MEAN_ANOMALY   = 71.0602

EPHEMERIS_TYPE = 0
CLASSIFICATION_TYPE = U
NORAD_CAT_ID   = 22566
ELEMENT_SET_NO = 999
REV_AT_EPOCH   = 70493
BSTAR          = .35798E-4
MEAN_MOTION_DOT = .22E-6
MEAN_MOTION_DDOT = 0

